{"type": "FeatureCollection", "features": [ {"type": "Feature", "properties": {"norad_id": 31931, "name": "FENGYUN 1C DEB", "group": "fengyun-1c-debris", "lat": -38.399931091895475, "lon": -51.449171430606754, "alt_km": 979.4811626712644, "timestamp": "2025-12-19T06:59:44.193402+00:00", "meta": {"OBJECT_NAME": "FENGYUN 1C DEB", "OBJECT_ID": "1999-025CMG", "EPOCH": "2025-12-17T14:03:05.853024", "MEAN_MOTION": 13.42627068, "ECCENTRICITY": 0.04227153, "INCLINATION": 97.8142, "RA_OF_ASC_NODE": 300.9752, "ARG_OF_PERICENTER": 257.0233, "MEAN_ANOMALY": 98.3392, "EPHEMERIS_TYPE": 0, "CLASSIFICATION_TYPE": "U", "NORAD_CAT_ID": 31931, "ELEMENT_SET_NO": 999, "REV_AT_EPOCH": 65287, "BSTAR": 0.00058612353, "MEAN_MOTION_DOT": 5.32e-06, "MEAN_MOTION_DDOT": 0}, "tle": {"line1": "1 31931U 99025CMG 25351.58548441  .00000532  00000+0  58612-3 0  9991", "line2": "2 31931  97.8142 300.9752 0422715 257.0233  98.3392 13.42627068652870"}}, "geometry": {"type": "Point", "coordinates": [-51.449171430606754, -38.399931091895475]}}, {"type": "Feature", "properties": {"norad_id": 31934, "name": "FENGYUN 1C DEB", "group": "fengyun-1c-debris", "lat": 26.627544751086297, "lon": -131.88041215247952, "alt_km": 529.7494382313189, "timestamp": "2025-12-19T06:59:44.193412+00:00", "meta": {"OBJECT_NAME": "FENGYUN 1C DEB", "OBJECT_ID": "1999-025CMK", "EPOCH": "2025-12-17T14:29:22.520832", "MEAN_MOTION": 15.0735698, "ECCENTRICITY": 0.00367266, "INCLINATION": 98.8801, "RA_OF_ASC_NODE": 41.6776, "ARG_OF_PERICENTER": 217.4543, "MEAN_ANOMALY": 142.4121, "EPHEMERIS_TYPE": 0, "CLASSIFICATION_TYPE": "U", "NORAD_CAT_ID": 31934, "ELEMENT_SET_NO": 999, "REV_AT_EPOCH": 60916, "BSTAR": 0.0026504952, "MEAN_MOTION_DOT": 0.00040819, "MEAN_MOTION_DDOT": 0}, "tle": {"line1": "1 31934U 99025CMK 25351.60373288  .00040819  00000+0  26505-2 0  9999", "line2": "2 31934  98.8801  41.6776 0036726 217.4543 142.4121 15.07356980609168"}}, "geometry": {"type": "Point", "coordinates": [-131.88041215247952, 26.627544751086297]}}, {"type": "Feature", "properties": {"norad_id": 31937, "name": "FENGYUN 1C DEB", "group": "fengyun-1c-debris", "lat": -53.54884732439445, "lon": -108.90189912481412, "alt_km": 557.0285598441496, "timestamp": "2025-12-19T06:59:44.193434+00:00", "meta": {"OBJECT_NAME": "FENGYUN 1C DEB", "OBJECT_ID": "1999-025CMN", "EPOCH": "2025-12-06T23:52:27.149088", "MEAN_MOTION": 14.78022374, "ECCENTRICITY": 0.0162921, "INCLINATION": 99.2561, "RA_OF_ASC_NODE": 69.7316, "ARG_OF_PERICENTER": 315.3928, "MEAN_ANOMALY": 43.4262, "EPHEMERIS_TYPE": 0, "CLASSIFICATION_TYPE": "U", "NORAD_CAT_ID": 31937, "ELEMENT_SET_NO": 999, "REV_AT_EPOCH": 65984, "BSTAR": 0.0011794166, "MEAN_MOTION_DOT": 0.00010567, "MEAN_MOTION_DDOT": 0}, "tle": {"line1": "1 31937U 99025CMN 25340.99475867  .00010567  00000+0  11794-2 0  9999", "line2": "2 31937  99.2561  69.7316 0162921 315.3928  43.4262 14.78022374659842"}}, "geometry": {"type": "Point", "coordinates": [-108.90189912481412, -53.54884732439445]}}, {"type": "Feature", "properties": {"norad_id": 31938, "name": "FENGYUN 1C DEB", "group": "fengyun-1c-debris", "lat": -56.9490771722701, "lon": -168.34976682062617, "alt_km": 690.8918878682598, "timestamp": "2025-12-19T06:59:44.193444+00:00", "meta": {"OBJECT_NAME": "FENGYUN 1C DEB", "OBJECT_ID": "1999-025CMP", "EPOCH": "2025-12-14T19:58:10.232832", "MEAN_MOTION": 14.95638465, "ECCENTRICITY": 0.01527985, "INCLINATION": 98.9295, "RA_OF_ASC_NODE": 20.5547, "ARG_OF_PERICENTER": 59.5249, "MEAN_ANOMALY": 302.0958, "EPHEMERIS_TYPE": 0, "CLASSIFICATION_TYPE": "U", "NORAD_CAT_ID": 31938, "ELEMENT_SET_NO": 999, "REV_AT_EPOCH": 99167, "BSTAR": 0.00030579911, "MEAN_MOTION_DOT": 4.214e-05, "MEAN_MOTION_DDOT": 0}, "tle": {"line1": "1 31938U 99025CMP 25348.83206288  .00004214  00000+0  30580-3 0  9997", "line2": "2 31938  98.9295  20.5547 0152798  59.5249 302.0958 14.95638465991677"}}, "geometry": {"type": "Point", "coordinates": [-168.34976682062617, -56.9490771722701]}}, {"type": "Feature", "properties": {"norad_id": 31944, "name": "FENGYUN 1C DEB", "group": "fengyun-1c-debris", "lat": -68.33177099541051, "lon": 165.05131058795718, "alt_km": 798.2375947177679, "timestamp": "2025-12-19T06:59:44.193455+00:00", "meta": {"OBJECT_NAME": "FENGYUN 1C DEB", "OBJECT_ID": "1999-025CMV", "EPOCH": "2025-12-12T04:22:40.814976", "MEAN_MOTION": 14.11787529, "ECCENTRICITY": 0.0151811, "INCLINATION": 99.2035, "RA_OF_ASC_NODE": 133.6743, "ARG_OF_PERICENTER": 5.8705, "MEAN_ANOMALY": 173.5719, "EPHEMERIS_TYPE": 0, "CLASSIFICATION_TYPE": "U", "NORAD_CAT_ID": 31944, "ELEMENT_SET_NO": 999, "REV_AT_EPOCH": 62902, "BSTAR": 0.0007470391, "MEAN_MOTION_DOT": 1.471e-05, "MEAN_MOTION_DDOT": 0}, "tle": {"line1": "1 31944U 99025CMV 25346.18241684  .00001471  00000+0  74704-3 0  9997", "line2": "2 31944  99.2035 133.6743 0151811   5.8705 173.5719 14.11787529629027"}}, "geometry": {"type": "Point", "coordinates": [165.05131058795718, -68.33177099541051]}}, {"type": "Feature", "properties": {"norad_id": 31945, "name": "FENGYUN 1C DEB", "group": "fengyun-1c-debris", "lat": 48.49292310460989, "lon": -100.00589619798374, "alt_km": 850.4082168090072, "timestamp": "2025-12-19T06:59:44.193465+00:00", "meta": {"OBJECT_NAME": "FENGYUN 1C DEB", "OBJECT_ID": "1999-025CMW", "EPOCH": "2025-12-13T11:47:25.444608", "MEAN_MOTION": 14.20810827, "ECCENTRICITY": 0.00610185, "INCLINATION": 98.9627, "RA_OF_ASC_NODE": 63.8406, "ARG_OF_PERICENTER": 284.9979, "MEAN_ANOMALY": 74.4449, "EPHEMERIS_TYPE": 0, "CLASSIFICATION_TYPE": "U", "NORAD_CAT_ID": 31945, "ELEMENT_SET_NO": 999, "REV_AT_EPOCH": 95206, "BSTAR": 0.0023325196, "MEAN_MOTION_DOT": 5.09e-05, "MEAN_MOTION_DDOT": 0}, "tle": {"line1": "1 31945U 99025CMW 25347.49126672  .00005090  00000+0  23325-2 0  9995", "line2": "2 31945  98.9627  63.8406 0061018 284.9979  74.4449 14.20810827952063"}}, "geometry": {"type": "Point", "coordinates": [-100.00589619798374, 48.49292310460989]}}, {"type": "Feature", "properties": {"norad_id": 31946, "name": "FENGYUN 1C DEB", "group": "fengyun-1c-debris", "lat": -77.86851835674995, "lon": -173.2735756557297, "alt_km": 881.7752950566219, "timestamp": "2025-12-19T06:59:44.193475+00:00", "meta": {"OBJECT_NAME": "FENGYUN 1C DEB", "OBJECT_ID": "1999-025CMX", "EPOCH": "2025-12-16T09:57:01.816704", "MEAN_MOTION": 14.16452802, "ECCENTRICITY": 0.00819225, "INCLINATION": 98.8983, "RA_OF_ASC_NODE": 50.6388, "ARG_OF_PERICENTER": 39.1679, "MEAN_ANOMALY": 321.5385, "EPHEMERIS_TYPE": 0, "CLASSIFICATION_TYPE": "U", "NORAD_CAT_ID": 31946, "ELEMENT_SET_NO": 999, "REV_AT_EPOCH": 64060, "BSTAR": 0.00089849331, "MEAN_MOTION_DOT": 1.802e-05, "MEAN_MOTION_DDOT": 0}, "tle": {"line1": "1 31946U 99025CMX 25350.41460436  .00001802  00000+0  89849-3 0  9992", "line2": "2 31946  98.8983  50.6388 0081922  39.1679 321.5385 14.16452802640603"}}, "geometry": {"type": "Point", "coordinates": [-173.2735756557297, -77.86851835674995]}}, {"type": "Feature", "properties": {"norad_id": 31948, "name": "FENGYUN 1C DEB", "group": "fengyun-1c-debris", "lat": -24.51280847746801, "lon": -130.11367629605567, "alt_km": 818.4093732460315, "timestamp": "2025-12-19T06:59:44.193485+00:00", "meta": {"OBJECT_NAME": "FENGYUN 1C DEB", "OBJECT_ID": "1999-025CMZ", "EPOCH": "2025-12-18T10:10:15.056832", "MEAN_MOTION": 14.28329763, "ECCENTRICITY": 0.00234205, "INCLINATION": 99.3923, "RA_OF_ASC_NODE": 53.282, "ARG_OF_PERICENTER": 5.6805, "MEAN_ANOMALY": 59.9549, "EPHEMERIS_TYPE": 0, "CLASSIFICATION_TYPE": "U", "NORAD_CAT_ID": 31948, "ELEMENT_SET_NO": 999, "REV_AT_EPOCH": 95109, "BSTAR": 0.0011732562, "MEAN_MOTION_DOT": 2.889e-05, "MEAN_MOTION_DDOT": 0}, "tle": {"line1": "1 31948U 99025CMZ 25352.42378538  .00002889  00000+0  11733-2 0  9990", "line2": "2 31948  99.3923  53.2820 0023420   5.6805  59.9549 14.28329763951097"}}, "geometry": {"type": "Point", "coordinates": [-130.11367629605567, -24.51280847746801]}}, {"type": "Feature", "properties": {"norad_id": 31949, "name": "FENGYUN 1C DEB", "group": "fengyun-1c-debris", "lat": 63.08430496054183, "lon": 175.75375601684402, "alt_km": 810.357361122491, "timestamp": "2025-12-19T06:59:44.193495+00:00", "meta": {"OBJECT_NAME": "FENGYUN 1C DEB", "OBJECT_ID": "1999-025CNA", "EPOCH": "2025-11-23T05:03:27.897984", "MEAN_MOTION": 14.1687356, "ECCENTRICITY": 0.01252295, "INCLINATION": 98.5419, "RA_OF_ASC_NODE": 313.4803, "ARG_OF_PERICENTER": 269.0533, "MEAN_ANOMALY": 89.6292, "EPHEMERIS_TYPE": 0, "CLASSIFICATION_TYPE": "U", "NORAD_CAT_ID": 31949, "ELEMENT_SET_NO": 999, "REV_AT_EPOCH": 95228, "BSTAR": 0.00041514195, "MEAN_MOTION_DOT": 8.56e-06, "MEAN_MOTION_DDOT": 0}, "tle": {"line1": "1 31949U 99025CNA 25327.21073956  .00000856  00000+0  41514-3 0  9999", "line2": "2 31949  98.5419 313.4803 0125229 269.0533  89.6292 14.16873560952288"}}, "geometry": {"type": "Point", "coordinates": [175.75375601684402, 63.08430496054183]}}, {"type": "Feature", "properties": {"norad_id": 31952, "name": "FENGYUN 1C DEB", "group": "fengyun-1c-debris", "lat": 57.02529264807101, "lon": 96.77037892592261, "alt_km": 775.147108174353, "timestamp": "2025-12-19T06:59:44.193505+00:00", "meta": {"OBJECT_NAME": "FENGYUN 1C DEB", "OBJECT_ID": "1999-025CND", "EPOCH": "2025-12-18T14:12:19.368576", "MEAN_MOTION": 14.53519617, "ECCENTRICITY": 0.01140991, "INCLINATION": 98.9557, "RA_OF_ASC_NODE": 110.0904, "ARG_OF_PERICENTER": 274.7014, "MEAN_ANOMALY": 84.1157, "EPHEMERIS_TYPE": 0, "CLASSIFICATION_TYPE": "U", "NORAD_CAT_ID": 31952, "ELEMENT_SET_NO": 999, "REV_AT_EPOCH": 97294, "BSTAR": 0.00039311393, "MEAN_MOTION_DOT": 1.729e-05, "MEAN_MOTION_DDOT": 0}, "tle": {"line1": "1 31952U 99025CND 25352.59189084  .00001729  00000+0  39311-3 0  9994", "line2": "2 31952  98.9557 110.0904 0114099 274.7014  84.1157 14.53519617972948"}}, "geometry": {"type": "Point", "coordinates": [96.77037892592261, 57.02529264807101]}}]}